ORBCOMM FM20 [+]        
1 25416U 98046D   24034.33334069  .00001208  00000+0  47098-3 0  9990
2 25416  44.9964  23.8899 0002303 286.6974  73.3620 14.34840255332415
ORBCOMM FM16 [-]        
1 25417U 98046E   24034.91009957  .00001576  00000+0  58942-3 0  9998
2 25417  44.9963  17.6115 0005811 303.6832  56.3461 14.35685605332429
ORBCOMM FM15 [-]        
1 25418U 98046F   24034.01372255  .00001353  00000+0  51545-3 0  9999
2 25418  44.9993  25.6833 0005411 299.8886  60.1423 14.35423591332302
ORBCOMM FM14 [-]        
1 25419U 98046G   24034.35686179  .00001803  00000+0  66898-3 0  9997
2 25419  44.9986  23.2969 0004341 294.4167 220.2658 14.35561249332305
ORBCOMM FM13 [+]        
1 25420U 98046H   24034.32698594  .00001505  00000+0  57347-3 0  9998
2 25420  44.9996  27.7976 0006553 289.8043  70.2097 14.34930493331379
ORBCOMM FM21 [-]        
1 25475U 98053A   24034.34451633  .00001193  00000+0  46520-3 0  9993
2 25475  45.0090 111.9160 0002536 241.0667 118.9926 14.34911892325394
ORBCOMM FM22 [-]        
1 25476U 98053B   24034.56378743  .00001475  00000+0  55838-3 0  9993
2 25476  45.0088 108.5324 0004275 239.6885 120.3540 14.35354240325414
ORBCOMM FM23 [-]        
1 25477U 98053C   24034.30519948  .00001389  00000+0  53333-3 0  9992
2 25477  45.0089 114.5507 0003431 236.3469 123.7051 14.34924534325536
